CCSDS_OMM_VERS = 2.0
CREATION_DATE  = 
ORIGINATOR     = 

OBJECT_NAME    = H-2A R/B
OBJECT_ID      = 2012-025E
CENTER_NAME    = EARTH
REF_FRAME      = TEME
TIME_SYSTEM    = UTC
MEAN_ELEMENT_THEORY = SGP/SGP4

EPOCH          = 2025-10-26T10:17:18.572352
MEAN_MOTION    = 14.93937507
ECCENTRICITY   = .0046747
INCLINATION    = 98.4525
RA_OF_ASC_NODE = 251.0506
ARG_OF_PERICENTER = 33.5720
MEAN_ANOMALY   = 326.8445

EPHEMERIS_TYPE = 0
CLASSIFICATION_TYPE = U
NORAD_CAT_ID   = 38341
ELEMENT_SET_NO = 999
REV_AT_EPOCH   = 72816
BSTAR          = .47248E-3
MEAN_MOTION_DOT = .5071E-4
MEAN_MOTION_DDOT = 0

CCSDS_OMM_VERS = 2.0
CREATION_DATE  = 
ORIGINATOR     = 

OBJECT_NAME    = SHIJIAN-16 (SJ-16)
OBJECT_ID      = 2013-057A
CENTER_NAME    = EARTH
REF_FRAME      = TEME
TIME_SYSTEM    = UTC
MEAN_ELEMENT_THEORY = SGP/SGP4

EPOCH          = 2025-10-26T12:37:26.978016
MEAN_MOTION    = 14.91728427
ECCENTRICITY   = .0015968
INCLINATION    = 74.9719
RA_OF_ASC_NODE = 78.9680
ARG_OF_PERICENTER = 77.3556
MEAN_ANOMALY   = 282.9416

EPHEMERIS_TYPE = 0
CLASSIFICATION_TYPE = U
NORAD_CAT_ID   = 39358
ELEMENT_SET_NO = 999
REV_AT_EPOCH   = 65149
BSTAR          = .18652E-3
MEAN_MOTION_DOT = .1854E-4
MEAN_MOTION_DDOT = 0

CCSDS_OMM_VERS = 2.0
CREATION_DATE  = 
ORIGINATOR     = 

OBJECT_NAME    = SL-4 R/B
OBJECT_ID      = 2014-021B
CENTER_NAME    = EARTH
REF_FRAME      = TEME
TIME_SYSTEM    = UTC
MEAN_ELEMENT_THEORY = SGP/SGP4

EPOCH          = 2025-10-26T07:25:12.574848
MEAN_MOTION    = 15.34830939
ECCENTRICITY   = .0105535
INCLINATION    = 51.6088
RA_OF_ASC_NODE = 270.7963
ARG_OF_PERICENTER = 335.2234
MEAN_ANOMALY   = 24.3700

EPHEMERIS_TYPE = 0
CLASSIFICATION_TYPE = U
NORAD_CAT_ID   = 39679
ELEMENT_SET_NO = 999
REV_AT_EPOCH   = 63560
BSTAR          = .43641E-3
MEAN_MOTION_DOT = .1758E-3
MEAN_MOTION_DDOT = 0

CCSDS_OMM_VERS = 2.0
CREATION_DATE  = 
ORIGINATOR     = 

OBJECT_NAME    = ALOS-2
OBJECT_ID      = 2014-029A
CENTER_NAME    = EARTH
REF_FRAME      = TEME
TIME_SYSTEM    = UTC
MEAN_ELEMENT_THEORY = SGP/SGP4

EPOCH          = 2025-10-26T12:50:38.726016
MEAN_MOTION    = 14.79434859
ECCENTRICITY   = .0001128
INCLINATION    = 97.9231
RA_OF_ASC_NODE = 35.0532
ARG_OF_PERICENTER = 98.0814
MEAN_ANOMALY   = 262.0525

EPHEMERIS_TYPE = 0
CLASSIFICATION_TYPE = U
NORAD_CAT_ID   = 39766
ELEMENT_SET_NO = 999
REV_AT_EPOCH   = 61703
BSTAR          = .22217E-3
MEAN_MOTION_DOT = .1607E-4
MEAN_MOTION_DDOT = 0

CCSDS_OMM_VERS = 2.0
CREATION_DATE  = 
ORIGINATOR     = 

OBJECT_NAME    = YAOGAN-29
OBJECT_ID      = 2015-069A
CENTER_NAME    = EARTH
REF_FRAME      = TEME
TIME_SYSTEM    = UTC
MEAN_ELEMENT_THEORY = SGP/SGP4

EPOCH          = 2025-10-26T12:24:10.908288
MEAN_MOTION    = 14.82803981
ECCENTRICITY   = .0002814
INCLINATION    = 98.0272
RA_OF_ASC_NODE = 322.5244
ARG_OF_PERICENTER = 77.2043
MEAN_ANOMALY   = 282.9485

EPHEMERIS_TYPE = 0
CLASSIFICATION_TYPE = U
NORAD_CAT_ID   = 41038
ELEMENT_SET_NO = 999
REV_AT_EPOCH   = 53599
BSTAR          = .93875E-4
MEAN_MOTION_DOT = .705E-5
MEAN_MOTION_DDOT = 0

CCSDS_OMM_VERS = 2.0
CREATION_DATE  = 
ORIGINATOR     = 

OBJECT_NAME    = ASTRO-H (HITOMI)
OBJECT_ID      = 2016-012A
CENTER_NAME    = EARTH
REF_FRAME      = TEME
TIME_SYSTEM    = UTC
MEAN_ELEMENT_THEORY = SGP/SGP4

EPOCH          = 2025-10-26T06:24:50.012064
MEAN_MOTION    = 15.08922427
ECCENTRICITY   = .0009926
INCLINATION    = 30.9978
RA_OF_ASC_NODE = 143.3111
ARG_OF_PERICENTER = 59.9284
MEAN_ANOMALY   = 300.2337

EPHEMERIS_TYPE = 0
CLASSIFICATION_TYPE = U
NORAD_CAT_ID   = 41337
ELEMENT_SET_NO = 999
REV_AT_EPOCH   = 53190
BSTAR          = .24379E-3
MEAN_MOTION_DOT = .4038E-4
MEAN_MOTION_DDOT = 0

CCSDS_OMM_VERS = 2.0
CREATION_DATE  = 
ORIGINATOR     = 

OBJECT_NAME    = HXMT (HUIYAN)
OBJECT_ID      = 2017-034A
CENTER_NAME    = EARTH
REF_FRAME      = TEME
TIME_SYSTEM    = UTC
MEAN_ELEMENT_THEORY = SGP/SGP4

EPOCH          = 2025-10-26T13:07:07.707936
MEAN_MOTION    = 15.15466719
ECCENTRICITY   = .0031872
INCLINATION    = 43.0152
RA_OF_ASC_NODE = 41.3657
ARG_OF_PERICENTER = 108.1153
MEAN_ANOMALY   = 252.3169

EPHEMERIS_TYPE = 0
CLASSIFICATION_TYPE = U
NORAD_CAT_ID   = 42758
ELEMENT_SET_NO = 999
REV_AT_EPOCH   = 46217
BSTAR          = .40417E-3
MEAN_MOTION_DOT = .7652E-4
MEAN_MOTION_DDOT = 0

CCSDS_OMM_VERS = 2.0
CREATION_DATE  = 
ORIGINATOR     = 

OBJECT_NAME    = CZ-2C R/B
OBJECT_ID      = 2018-054D
CENTER_NAME    = EARTH
REF_FRAME      = TEME
TIME_SYSTEM    = UTC
MEAN_ELEMENT_THEORY = SGP/SGP4

EPOCH          = 2025-10-26T06:24:12.754656
MEAN_MOTION    = 15.64372633
ECCENTRICITY   = .0026537
INCLINATION    = 35.1346
RA_OF_ASC_NODE = 140.3695
ARG_OF_PERICENTER = 43.2846
MEAN_ANOMALY   = 316.9964

EPHEMERIS_TYPE = 0
CLASSIFICATION_TYPE = U
NORAD_CAT_ID   = 43521
ELEMENT_SET_NO = 999
REV_AT_EPOCH   = 40759
BSTAR          = .60349E-3
MEAN_MOTION_DOT = .61342E-3
MEAN_MOTION_DDOT = 0

CCSDS_OMM_VERS = 2.0
CREATION_DATE  = 
ORIGINATOR     = 

OBJECT_NAME    = SAOCOM 1A
OBJECT_ID      = 2018-076A
CENTER_NAME    = EARTH
REF_FRAME      = TEME
TIME_SYSTEM    = UTC
MEAN_ELEMENT_THEORY = SGP/SGP4

EPOCH          = 2025-10-26T11:34:08.394240
MEAN_MOTION    = 14.82166404
ECCENTRICITY   = .0001442
INCLINATION    = 97.8879
RA_OF_ASC_NODE = 124.5867
ARG_OF_PERICENTER = 86.0728
MEAN_ANOMALY   = 274.0650

EPHEMERIS_TYPE = 0
CLASSIFICATION_TYPE = U
NORAD_CAT_ID   = 43641
ELEMENT_SET_NO = 999
REV_AT_EPOCH   = 38148
BSTAR          = .96178E-4
MEAN_MOTION_DOT = .714E-5
MEAN_MOTION_DDOT = 0

CCSDS_OMM_VERS = 2.0
CREATION_DATE  = 
ORIGINATOR     = 

OBJECT_NAME    = H-2A R/B
OBJECT_ID      = 2018-084L
CENTER_NAME    = EARTH
REF_FRAME      = TEME
TIME_SYSTEM    = UTC
MEAN_ELEMENT_THEORY = SGP/SGP4

EPOCH          = 2025-10-26T09:41:40.147296
MEAN_MOTION    = 15.35075899
ECCENTRICITY   = .0029346
INCLINATION    = 98.8821
RA_OF_ASC_NODE = 123.7612
ARG_OF_PERICENTER = 126.7426
MEAN_ANOMALY   = 233.6514

EPHEMERIS_TYPE = 0
CLASSIFICATION_TYPE = U
NORAD_CAT_ID   = 43682
ELEMENT_SET_NO = 999
REV_AT_EPOCH   = 38513
BSTAR          = .56897E-3
MEAN_MOTION_DOT = .19561E-3
MEAN_MOTION_DDOT = 0

CCSDS_OMM_VERS = 2.0
CREATION_DATE  = 
ORIGINATOR     = 

OBJECT_NAME    = SAOCOM 1B
OBJECT_ID      = 2020-059A
CENTER_NAME    = EARTH
REF_FRAME      = TEME
TIME_SYSTEM    = UTC
MEAN_ELEMENT_THEORY = SGP/SGP4

EPOCH          = 2025-10-26T12:19:10.638912
MEAN_MOTION    = 14.82157601
ECCENTRICITY   = .0001351
INCLINATION    = 97.8867
RA_OF_ASC_NODE = 123.7208
ARG_OF_PERICENTER = 88.5667
MEAN_ANOMALY   = 271.5701

EPHEMERIS_TYPE = 0
CLASSIFICATION_TYPE = U
NORAD_CAT_ID   = 46265
ELEMENT_SET_NO = 999
REV_AT_EPOCH   = 27887
BSTAR          = .96924E-4
MEAN_MOTION_DOT = .719E-5
MEAN_MOTION_DDOT = 0

CCSDS_OMM_VERS = 2.0
CREATION_DATE  = 
ORIGINATOR     = 

OBJECT_NAME    = CSS (TIANHE)
OBJECT_ID      = 2021-035A
CENTER_NAME    = EARTH
REF_FRAME      = TEME
TIME_SYSTEM    = UTC
MEAN_ELEMENT_THEORY = SGP/SGP4

EPOCH          = 2025-10-26T10:56:07.785024
MEAN_MOTION    = 15.60696808
ECCENTRICITY   = .001103
INCLINATION    = 41.4669
RA_OF_ASC_NODE = 303.9463
ARG_OF_PERICENTER = 286.4253
MEAN_ANOMALY   = 73.5373

EPHEMERIS_TYPE = 0
CLASSIFICATION_TYPE = U
NORAD_CAT_ID   = 48274
ELEMENT_SET_NO = 999
REV_AT_EPOCH   = 25664
BSTAR          = .40194E-3
MEAN_MOTION_DOT = .3424E-3
MEAN_MOTION_DDOT = 0

