H-2A R/B                
1 38341U 12025E   25299.42868718  .00005071  00000+0  47248-3 0  9990
2 38341  98.4525 251.0506 0046747  33.5720 326.8445 14.93937507728165
SHIJIAN-16 (SJ-16)      
1 39358U 13057A   25299.52600669  .00001854  00000+0  18652-3 0  9997
2 39358  74.9719  78.9680 0015968  77.3556 282.9416 14.91728427651499
SL-4 R/B                
1 39679U 14021B   25299.30917332  .00017580  00000+0  43641-3 0  9998
2 39679  51.6088 270.7963 0105535 335.2234  24.3700 15.34830939635600
ALOS-2                  
1 39766U 14029A   25299.53517044  .00001607  00000+0  22217-3 0  9993
2 39766  97.9231  35.0532 0001128  98.0814 262.0525 14.79434859617037
YAOGAN-29               
1 41038U 15069A   25299.51679292  .00000705  00000+0  93875-4 0  9992
2 41038  98.0272 322.5244 0002814  77.2043 282.9485 14.82803981535999
ASTRO-H (HITOMI)        
1 41337U 16012A   25299.26724551  .00004038  00000+0  24379-3 0  9999
2 41337  30.9978 143.3111 0009926  59.9284 300.2337 15.08922427531909
HXMT (HUIYAN)           
1 42758U 17034A   25299.54661699  .00007652  00000+0  40417-3 0  9992
2 42758  43.0152  41.3657 0031872 108.1153 252.3169 15.15466719462172
CZ-2C R/B               
1 43521U 18054D   25299.26681429  .00061342  00000+0  60349-3 0  9998
2 43521  35.1346 140.3695 0026537  43.2846 316.9964 15.64372633407590
SAOCOM 1A               
1 43641U 18076A   25299.48204160  .00000714  00000+0  96178-4 0  9998
2 43641  97.8879 124.5867 0001442  86.0728 274.0650 14.82166404381487
H-2A R/B                
1 43682U 18084L   25299.40393689  .00019561  00000+0  56897-3 0  9992
2 43682  98.8821 123.7612 0029346 126.7426 233.6514 15.35075899385131
SAOCOM 1B               
1 46265U 20059A   25299.51331758  .00000719  00000+0  96924-4 0  9999
2 46265  97.8867 123.7208 0001351  88.5667 271.5701 14.82157601278873
CSS (TIANHE)            
1 48274U 21035A   25299.45564566  .00034240  00000+0  40194-3 0  9997
2 48274  41.4669 303.9463 0011030 286.4253  73.5373 15.60696808256640
